OBJECT_NAME,OBJECT_ID,EPOCH,MEAN_MOTION,ECCENTRICITY,INCLINATION,RA_OF_ASC_NODE,ARG_OF_PERICENTER,MEAN_ANOMALY,EPHEMERIS_TYPE,CLASSIFICATION_TYPE,NORAD_CAT_ID,ELEMENT_SET_NO,REV_AT_EPOCH,BSTAR,MEAN_MOTION_DOT,MEAN_MOTION_DDOT
ZHONGXING-2C,2015-063A,2026-06-06T20:48:29.147328,1.00269249,.0007569,0.2464,90.3898,95.6237,124.8153,0,U,41021,999,3887,0,-.31E-5,0
GSAT-15,2015-065A,2026-06-06T19:44:18.085056,1.00271562,.0004068,0.0474,114.1142,324.1265,206.5857,0,U,41028,999,3869,0,-.244E-5,0
BADR-7 (ARABSAT-6B),2015-065B,2026-06-06T21:33:51.868800,1.00270018,.0003234,0.0398,239.2569,318.2250,47.2933,0,U,41029,999,3866,0,.158E-5,0
LAOSAT 1,2015-067A,2026-06-06T21:22:00.071040,1.00267514,.0002145,0.0375,204.2191,196.8010,303.2795,0,U,41034,999,3875,0,-.329E-5,0
TELSTAR 12V,2015-068A,2026-06-06T20:14:42.282816,1.00271561,.0002448,0.0117,39.3366,33.8279,110.7809,0,U,41036,999,3852,0,-.105E-5,0
ELEKTRO-L 2,2015-074A,2026-06-05T23:42:55.922400,1.00272284,.00013042,6.6659,70.6588,282.3931,242.6125,0,U,41105,999,3839,0,-.105E-5,0
COSMOS 2513,2015-075A,2026-06-06T20:41:56.429952,1.00270805,.0003603,0.0773,100.3179,329.8480,215.8500,0,U,41121,999,3844,0,-.124E-5,0
EXPRESS-AMU1,2015-082A,2026-06-06T20:29:13.644096,1.00269552,.000298,0.0196,319.8159,116.4749,162.3882,0,U,41191,999,3816,0,.169E-5,0
GAOFEN-4,2015-083A,2026-06-06T19:06:26.328384,1.00269078,.0004359,0.3301,83.7532,108.8481,94.9007,0,U,41194,999,3842,0,-.321E-5,0
BELINTERSAT-1,2016-001A,2026-06-06T20:33:43.212096,1.00272811,.000215,0.0431,134.0277,259.8172,221.3567,0,U,41238,999,3813,0,.12E-5,0
IRNSS-1E,2016-003A,2026-06-06T15:42:46.238112,1.00270004,.0017896,33.2123,59.9028,179.5464,3.0470,0,U,41241,999,3797,0,-.294E-5,0
EUTELSAT 9B,2016-005A,2026-06-06T20:21:36.874080,1.00272197,.0001983,0.0548,70.0085,335.3867,164.2528,0,U,41310,999,3801,0,.75E-6,0
SES-9,2016-013A,2026-06-06T19:07:03.768096,1.00268887,.0002317,0.0097,337.6624,108.5184,204.0974,0,U,41380,999,3733,0,-.331E-5,0
EUTELSAT 65 WEST A,2016-014A,2026-06-06T20:00:21.159072,1.00273571,.0002411,0.0486,2.1691,64.0174,63.9541,0,U,41382,999,3742,0,-.263E-5,0
IRNSS-1F,2016-015A,2026-06-06T18:38:51.911808,1.00277546,.0016649,5.3231,97.0165,186.8596,283.5701,0,U,41384,999,3756,0,.172E-5,0
BEIDOU-2 IGSO-6,2016-021A,2026-06-06T00:20:02.745024,1.00261920,.00572211,60.2097,38.1520,231.5167,83.2996,0,U,41434,999,3736,0,-.145E-5,0
IRNSS-1G,2016-027A,2026-06-06T19:13:18.170400,1.00271419,.0007459,5.1727,97.7134,352.2727,223.1404,0,U,41469,999,3707,0,-.32E-5,0
JCSAT-2B,2016-028A,2026-06-06T19:20:17.498976,1.00271856,.0001073,0.0178,331.7759,113.9426,253.5826,0,U,41471,999,3702,0,-.151E-5,0
THAICOM 8,2016-031A,2026-06-06T20:41:26.476800,1.00270935,.0003854,0.0626,42.8937,13.8923,227.3942,0,U,41552,999,3661,0,-.108E-5,0
INTELSAT 31 (IS-31),2016-035A,2026-06-06T13:01:11.707104,1.00269642,.0000831,0.0191,260.1747,342.0363,113.0075,0,U,41581,999,3657,0,-.137E-5,0
BEIDOU-2 G7,2016-037A,2026-06-06T20:50:28.955616,1.00270240,.0007343,1.6940,69.2299,1.5610,247.6684,0,U,41586,999,678,0,-.339E-5,0
ABS-2A (MONGOLSAT-1),2016-038A,2026-06-06T20:08:24.854784,1.00273158,.0001733,0.0182,326.3658,61.9979,243.7518,0,U,41588,999,3660,0,0,0
EUTELSAT 117 WEST B,2016-038B,2026-06-06T16:20:20.040000,1.00271549,.0000327,0.0031,120.5038,261.3354,1.3280,0,U,41589,999,3655,0,.2E-7,0
BRISAT,2016-039A,2026-06-06T19:19:17.596128,1.00272034,.0002187,0.0162,301.0494,132.6415,261.8586,0,U,41591,999,3650,0,-.182E-5,0
ECHOSTAR 18,2016-039B,2026-06-06T20:01:28.551072,1.00271878,.0001456,0.0024,84.2695,1.0333,48.9588,0,U,41592,999,3652,0,-.268E-5,0
MUOS-5,2016-041A,2026-06-06T16:23:27.242016,1.00270963,.0196736,2.2268,301.4398,260.8693,193.4227,0,U,41622,999,3698,0,-.105E-5,0
TIANTONG-1 1,2016-048A,2026-06-06T20:21:45.680832,1.00272098,.0006153,3.8288,43.3244,41.4560,217.3517,0,U,41725,999,3616,0,-.305E-5,0
JCSAT-16,2016-050A,2026-06-06T21:00:05.533920,1.00271224,.0001057,0.0179,333.3624,114.2830,266.6114,0,U,41729,999,3596,0,-.237E-5,0
USA 270,2016-052A,2026-06-05T10:04:03.097920,1.00283253,.0008506,4.1687,77.3372,337.2537,174.5297,0,U,41744,999,2801,0,.91E-6,0
USA 271,2016-052B,2026-06-05T07:15:21.540960,1.00263603,.001079,4.1397,77.4076,157.5545,250.4094,0,U,41745,999,2780,0,-.347E-5,0
INTELSAT 36 (IS-36),2016-053A,2026-06-06T19:58:18.185088,1.00270843,.0001594,0.0105,355.7243,342.4905,285.1040,0,U,41747,999,3585,0,-.11E-6,0
INSAT-3DR,2016-054A,2026-06-06T20:08:24.916128,1.00270773,.0010339,0.0790,87.7232,186.9864,356.6436,0,U,41752,999,3571,0,-.63E-6,0
