ZHONGXING-2C            
1 41021U 15063A   26157.86700402 -.00000310  00000+0  00000+0 0  9994
2 41021   0.2464  90.3898 0007569  95.6237 124.8153  1.00269249 38875
GSAT-15                 
1 41028U 15065A   26157.82243154 -.00000244  00000+0  00000+0 0  9991
2 41028   0.0474 114.1142 0004068 324.1265 206.5857  1.00271562 38690
BADR-7 (ARABSAT-6B)     
1 41029U 15065B   26157.89851700  .00000158  00000+0  00000+0 0  9994
2 41029   0.0398 239.2569 0003234 318.2250  47.2933  1.00270018 38667
LAOSAT 1                
1 41034U 15067A   26157.89027860 -.00000329  00000+0  00000+0 0  9995
2 41034   0.0375 204.2191 0002145 196.8010 303.2795  1.00267514 38753
TELSTAR 12V             
1 41036U 15068A   26157.84354494 -.00000105  00000+0  00000+0 0  9991
2 41036   0.0117  39.3366 0002448  33.8279 110.7809  1.00271561 38522
ELEKTRO-L 2             
1 41105U 15074A   26156.98814725 -.00000105  00000+0  00000+0 0  9997
2 41105   6.6659  70.6588 0001304 282.3931 242.6125  1.00272284 38396
COSMOS 2513             
1 41121U 15075A   26157.86245868 -.00000124  00000+0  00000+0 0  9991
2 41121   0.0773 100.3179 0003603 329.8480 215.8500  1.00270805 38448
EXPRESS-AMU1            
1 41191U 15082A   26157.85363014  .00000169  00000+0  00000+0 0  9997
2 41191   0.0196 319.8159 0002980 116.4749 162.3882  1.00269552 38169
GAOFEN-4                
1 41194U 15083A   26157.79613806 -.00000321  00000+0  00000+0 0  9992
2 41194   0.3301  83.7532 0004359 108.8481  94.9007  1.00269078 38426
BELINTERSAT-1           
1 41238U 16001A   26157.85675014  .00000120  00000+0  00000+0 0  9994
2 41238   0.0431 134.0277 0002150 259.8172 221.3567  1.00272811 38137
IRNSS-1E                
1 41241U 16003A   26157.65470183 -.00000294  00000+0  00000+0 0  9991
2 41241  33.2123  59.9028 0017896 179.5464   3.0470  1.00270004 37972
EUTELSAT 9B             
1 41310U 16005A   26157.84834345  .00000075  00000+0  00000+0 0  9991
2 41310   0.0548  70.0085 0001983 335.3867 164.2528  1.00272197 38013
SES-9                   
1 41380U 16013A   26157.79657139 -.00000331  00000+0  00000+0 0  9991
2 41380   0.0097 337.6624 0002317 108.5184 204.0974  1.00268887 37337
EUTELSAT 65 WEST A      
1 41382U 16014A   26157.83357823 -.00000263  00000+0  00000+0 0  9990
2 41382   0.0486   2.1691 0002411  64.0174  63.9541  1.00273571 37427
IRNSS-1F                
1 41384U 16015A   26157.77698972  .00000172  00000+0  00000+0 0  9997
2 41384   5.3231  97.0165 0016649 186.8596 283.5701  1.00277546 37562
BEIDOU-2 IGSO-6         
1 41434U 16021A   26157.01392066 -.00000145  00000+0  00000+0 0  9993
2 41434  60.2097  38.1520 0057221 231.5167  83.2996  1.00261920 37360
IRNSS-1G                
1 41469U 16027A   26157.80090475 -.00000320  00000+0  00000+0 0  9998
2 41469   5.1727  97.7134 0007459 352.2727 223.1404  1.00271419 37070
JCSAT-2B                
1 41471U 16028A   26157.80575809 -.00000151  00000+0  00000+0 0  9993
2 41471   0.0178 331.7759 0001073 113.9426 253.5826  1.00271856 37020
THAICOM 8               
1 41552U 16031A   26157.86211200 -.00000108  00000+0  00000+0 0  9997
2 41552   0.0626  42.8937 0003854  13.8923 227.3942  1.00270935 36614
INTELSAT 31 (IS-31)     
1 41581U 16035A   26157.54249661 -.00000137  00000+0  00000+0 0  9992
2 41581   0.0191 260.1747 0000831 342.0363 113.0075  1.00269642 36570
BEIDOU-2 G7             
1 41586U 16037A   26157.86839069 -.00000339  00000+0  00000+0 0  9995
2 41586   1.6940  69.2299 0007343   1.5610 247.6684  1.00270240  6787
ABS-2A (MONGOLSAT-1)    
1 41588U 16038A   26157.83917656  .00000000  00000+0  00000+0 0  9998
2 41588   0.0182 326.3658 0001733  61.9979 243.7518  1.00273158 36609
EUTELSAT 117 WEST B     
1 41589U 16038B   26157.68078750  .00000002  00000+0  00000+0 0  9997
2 41589   0.0031 120.5038 0000327 261.3354   1.3280  1.00271549 36550
BRISAT                  
1 41591U 16039A   26157.80506477 -.00000182  00000+0  00000+0 0  9997
2 41591   0.0162 301.0494 0002187 132.6415 261.8586  1.00272034 36501
ECHOSTAR 18             
1 41592U 16039B   26157.83435823 -.00000268  00000+0  00000+0 0  9992
2 41592   0.0024  84.2695 0001456   1.0333  48.9588  1.00271878 36521
MUOS-5                  
1 41622U 16041A   26157.68295419 -.00000105  00000+0  00000+0 0  9997
2 41622   2.2268 301.4398 0196736 260.8693 193.4227  1.00270963 36983
TIANTONG-1 1            
1 41725U 16048A   26157.84844538 -.00000305  00000+0  00000+0 0  9990
2 41725   3.8288  43.3244 0006153  41.4560 217.3517  1.00272098 36166
JCSAT-16                
1 41729U 16050A   26157.87506405 -.00000237  00000+0  00000+0 0  9992
2 41729   0.0179 333.3624 0001057 114.2830 266.6114  1.00271224 35966
USA 270                 
1 41744U 16052A   26156.41948030  .00000091  00000+0  00000+0 0  9991
2 41744   4.1687  77.3372 0008506 337.2537 174.5297  1.00283253 28016
USA 271                 
1 41745U 16052B   26156.30233265 -.00000347  00000+0  00000+0 0  9992
2 41745   4.1397  77.4076 0010790 157.5545 250.4094  1.00263603 27809
INTELSAT 36 (IS-36)     
1 41747U 16053A   26157.83215492 -.00000011  00000+0  00000+0 0  9994
2 41747   0.0105 355.7243 0001594 342.4905 285.1040  1.00270843 35852
INSAT-3DR               
1 41752U 16054A   26157.83917727 -.00000063  00000+0  00000+0 0  9998
2 41752   0.0790  87.7232 0010339 186.9864 356.6436  1.00270773 35710
